PROBA-1                 
1 26958U 01049B   26161.56530677  .00002832  00000+0  18484-3 0  9991
2 26958  97.9604 169.8661 0055677 144.0965 216.4024 15.07469824342625
CUTE-1 (CO-55)          
1 27844U 03031E   26161.29335645  .00000255  00000+0  12935-3 0  9999
2 27844  98.6735 169.9388 0009062 198.4654 161.6197 14.24331486190695
CUBESAT XI-IV (CO-57)   
1 27848U 03031J   26161.27835743  .00000213  00000+0  11264-3 0  9993
2 27848  98.6767 169.6423 0008624 218.4782 141.5782 14.23617138190393
APRIZESAT 4             
1 35684U 09041D   26161.44643907  .00000584  00000+0  76372-4 0  9998
2 35684  98.1412 236.6325 0042866 345.2668  14.7293 14.83870372910368
APRIZESAT 3             
1 35686U 09041F   26161.34454705  .00001165  00000+0  10508-3 0  9999
2 35686  98.2053 314.2413 0062771  89.7329 271.1083 14.96220597915356
PROBA-2                 
1 36037U 09059B   26161.50046433  .00000168  00000+0  49671-4 0  9998
2 36037  98.2450 344.9461 0012163 304.8892  55.1161 14.54859541880558
APRIZESAT 5             
1 37792U 11044E   26161.31888029  .00000994  00000+0  13263-3 0  9992
2 37792  98.2454  94.1647 0052882  26.2317 334.1555 14.81060837797770
APRIZESAT 6             
1 37793U 11044F   26161.52861589  .00000633  00000+0  96461-4 0  9990
2 37793  98.2371  71.8921 0044412 106.6912  67.6097 14.76905904796168
PROBA-V                 
1 39159U 13021A   26161.51238492  .00000067  00000+0  47550-4 0  9991
2 39159  98.3581 140.4487 0004864 139.3348 220.8195 14.23595585680169
APRIZESAT 7             
1 39416U 13066A   26161.31122012  .00000810  00000+0  85701-4 0  9990
2 39416  97.7706 114.6301 0034525 232.6836 127.1235 14.91549644680200
APRIZESAT 8             
1 39425U 13066K   26161.07899970  .00000941  00000+0  10783-3 0  9999
2 39425  97.8219 108.6462 0044754 310.6608  49.0722 14.87638823678618
BUGSAT-1 (TITA)         
1 40014U 14033E   26161.56586093  .00004491  00000+0  23889-3 0  9998
2 40014  98.0421 253.7278 0027561 200.7629 159.2485 15.15513138654839
SAUDISAT 4              
1 40016U 14033G   26161.28824431  .00000641  00000+0  90933-4 0  9998
2 40016  97.7575 307.6620 0046239  95.7410 264.9076 14.79535246645057
APRIZESAT 9             
1 40018U 14033J   26161.28440399  .00000564  00000+0  90385-4 0  9992
2 40018  97.9051 294.6520 0065227 221.5813 138.0425 14.74205173642546
APRIZESAT 10            
1 40019U 14033K   26161.32391240  .00000360  00000+0  64658-4 0  9996
2 40019  97.9641 288.4368 0077550 296.1424  63.1820 14.70876511641240
TECHDEMOSAT-1 (TDS-1)   
1 40076U 14037H   26161.47998318  .00006443  00000+0  36722-3 0  9996
2 40076  98.3808 153.0283 0004615 297.1726  62.9032 15.13193146647213
TECHNOSAT               
1 42829U 17042E   26161.33432074  .00003016  00000+0  21642-3 0  9998
2 42829  97.4262 319.2540 0018783 115.9185 244.3980 15.04911814485672
FLYING LAPTOP           
1 42831U 17042G   26161.51966194  .00003526  00000+0  27892-3 0  9995
2 42831  97.4659 317.3109 0019264 143.5210 216.7331 15.01102920485452
HAWK-A                  
1 43765U 18099H   26161.39104426  .00005634  00000+0  22818-3 0  9998
2 43765  97.3921 213.7155 0033395 311.0189  48.8162 15.24562860412069
HAWK-B                  
1 43794U 18099AN  26161.40449859  .00005373  00000+0  23025-3 0  9995
2 43794  97.3970 213.1579 0030980 329.7971  30.1478 15.22751140412008
HAWK-C                  
1 43799U 18099AT  26161.12098613  .00006835  00000+0  24740-3 0  9996
2 43799  97.3897 214.3269 0039083 311.9023  47.8885 15.28004790412830
SALSAT                  
1 46495U 20068K   26161.27729316  .00007605  00000+0  26695-3 0  9995
2 46495  97.8853 163.9217 0008649 336.5873  23.4971 15.29700288314300
HAWK-2C                 
1 47502U 21006CT  26161.37095472  .00005909  00000+0  17864-3 0  9991
2 47502  97.2285 205.8170 0005905 211.1275 148.9620 15.34580913298451
HAWK-2A                 
1 47505U 21006CW  26161.37351407  .00005909  00000+0  17854-3 0  9996
2 47505  97.2326 206.4933 0005342 214.7925 145.2970 15.34595916298457
HAWK-2B                 
1 47508U 21006CZ  26161.36941683  .00006609  00000+0  19890-3 0  9999
2 47508  97.2198 204.8319 0005896 212.8990 147.1887 15.34673382298454
HAWK-3B                 
1 48931U 21059BE  26161.50140764  .00041446  00000+0  35970-3 0  9990
2 48931  97.6675 357.5807 0003692   3.1464 356.9820 15.69002522276808
HAWK-3C                 
1 48948U 21059BX  26161.50109144  .00042392  00000+0  36782-3 0  9998
2 48948  97.6795   3.2546 0004111   3.5921 356.5369 15.69001636276802
HAWK-3A                 
1 48957U 21059CG  26161.50099047  .00043077  00000+0  37364-3 0  9996
2 48957  97.6736   0.4648 0004168   5.1300 355.0003 15.69006053276807
HAWK-5C                 
1 52754U 22057Y   26160.69046710  .00017632  00000+0  30370-3 0  9991
2 52754  97.6588 319.8768 0005377 104.7995 255.3852 15.51125293225189
HAWK-5B                 
1 52756U 22057AA  26160.94836375  .00018213  00000+0  31346-3 0  9995
2 52756  97.6594 318.4998 0006000  97.0812 263.1122 15.51136769225226
HAWK-5A                 
1 52757U 22057AB  26160.94814201  .00018459  00000+0  31770-3 0  9993
2 52757  97.6594 319.3311 0005941 100.5201 259.6720 15.51132826225225
